OBJECT_NAME,OBJECT_ID,EPOCH,MEAN_MOTION,ECCENTRICITY,INCLINATION,RA_OF_ASC_NODE,ARG_OF_PERICENTER,MEAN_ANOMALY,EPHEMERIS_TYPE,CLASSIFICATION_TYPE,NORAD_CAT_ID,ELEMENT_SET_NO,REV_AT_EPOCH,BSTAR,MEAN_MOTION_DOT,MEAN_MOTION_DDOT
FENGYUN 1C DEB,1999-025EJJ,2026-06-08T04:33:16.030368,13.48265291,.04546678,102.7078,136.4614,88.1648,277.1473,0,U,37464,999,63312,.28774845E-2,.3308E-4,0
FENGYUN 1C DEB,1999-025EJU,2026-06-03T20:49:44.992704,14.78634424,.01237823,99.1494,28.3159,316.1785,42.9651,0,U,37474,999,64931,.11488487E-2,.9507E-4,0
FENGYUN 1C DEB,1999-025EJW,2026-06-07T15:54:54.471744,11.91465305,.10709767,98.9461,132.0862,242.0098,106.8605,0,U,37476,999,69550,.95009496E-3,.331E-5,0
FENGYUN 1C DEB,1999-025EJX,2026-06-12T19:33:20.856672,14.20220173,.0035538,98.6047,168.4994,301.6366,58.1345,0,U,37477,999,84498,.56781E-3,.1177E-4,0
FENGYUN 1C DEB,1999-025EJY,2026-06-11T15:34:15.937248,13.03570725,.05395429,99.6597,131.6525,262.7512,91.1991,0,U,37478,999,58918,.10619881E-2,.632E-5,0
FENGYUN 1C DEB,1999-025EKH,2026-06-05T23:19:06.341088,14.09891029,.011616,99.0738,65.8209,130.0671,231.0755,0,U,37589,999,85052,.26797E-2,.4981E-4,0
FENGYUN 1C DEB,1999-025EKK,2026-06-11T02:45:53.426016,14.60021538,.00652617,98.4077,115.0317,153.5766,222.1275,0,U,37591,999,69091,.28466897E-2,.14055E-3,0
FENGYUN 1C DEB,1999-025EKM,2026-05-30T12:30:01.280160,14.37901213,.01473389,99.0095,40.8046,341.6754,138.9750,0,U,37593,999,88545,.12691751E-2,.4293E-4,0
FENGYUN 1C DEB,1999-025EKN,2026-06-07T07:16:12.105696,14.11288464,.00869145,98.7131,187.6749,128.2083,232.6956,0,U,37594,999,80252,.26572061E-3,.455E-5,0
FENGYUN 1C DEB,1999-025EKP,2026-06-06T10:01:08.796288,14.81801706,.00200942,99.0456,32.7946,166.8284,11.3065,0,U,37595,999,65198,.53511046E-2,.4259E-3,0
FENGYUN 1C DEB,1999-025EKU,2026-06-11T04:25:52.240224,13.84913004,.03491598,98.9295,315.3949,281.2386,74.9723,0,U,37600,999,90983,.20541102E-2,.3686E-4,0
FENGYUN 1C DEB,1999-025EKY,2026-06-05T10:23:10.875264,13.32745923,.05837705,97.9941,43.6836,39.8217,135.9833,0,U,37683,999,31566,.21281292E-2,.2692E-4,0
FENGYUN 1C DEB,1999-025ELB,2026-06-11T06:50:33.934272,13.35517467,.0394223,99.0139,165.0970,314.4291,58.2720,0,U,37686,999,63037,.32233E-3,.215E-5,0
FENGYUN 1C DEB,1999-025ELC,2026-06-09T19:45:35.210016,13.87157387,.03286463,98.1859,179.1414,223.4312,318.5764,0,U,37687,999,85735,.20056266E-2,.3572E-4,0
FENGYUN 1C DEB,1999-025ELE,2026-05-30T14:36:22.290048,14.51615100,.0021514,98.9093,206.3282,96.0587,264.3059,0,U,37689,999,60260,.25604E-2,.10254E-3,0
FENGYUN 1C DEB,1999-025ELG,2026-06-10T00:08:55.248000,14.64914798,.02548034,98.3658,72.0046,312.3018,45.6837,0,U,37691,999,88252,.16856215E-2,.14539E-3,0
FENGYUN 1C DEB,1999-025ELJ,2026-06-12T05:40:13.156032,14.08883038,.00697549,98.6969,161.6455,282.2862,140.7695,0,U,37693,999,64704,.54824472E-3,.926E-5,0
FENGYUN 1C DEB,1999-025ELK,2026-06-10T09:35:54.280320,14.18040929,.01430409,98.1854,220.0943,289.3725,130.7174,0,U,37694,999,54249,.10279362E-2,.2291E-4,0
FENGYUN 1C DEB,1999-025ELL,2026-06-06T08:11:01.745088,13.65606545,.04620076,98.1870,179.2294,150.5521,230.5683,0,U,37695,999,91648,.69952012E-3,.116E-4,0
FENGYUN 1C DEB,1999-025ELV,2026-05-30T10:53:14.421696,13.70946431,.02416029,98.3273,326.2618,85.8225,305.5738,0,U,37704,999,64676,.13113225E-2,.1405E-4,0
FENGYUN 1C DEB,1999-025ELY,2026-06-08T21:43:43.619808,14.57427659,.01407051,100.2060,208.9249,226.0869,314.1913,0,U,37707,999,88160,.32537138E-3,.1614E-4,0
FENGYUN 1C DEB,1999-025EMD,2026-06-11T04:11:25.852992,14.36970299,.00791267,98.8426,310.7884,179.7856,358.5434,0,U,37712,999,66551,.34586319E-3,.1015E-4,0
FENGYUN 1C DEB,1999-025EMF,2026-05-31T07:02:32.307936,14.34053639,.00449447,98.8991,272.5594,304.4842,55.2100,0,U,37714,999,59938,.22801222E-2,.6403E-4,0
FENGYUN 1C DEB,1999-025EMG,2026-06-12T06:58:07.331232,13.95688887,.01128088,98.9526,170.9725,334.2713,41.5034,0,U,37715,999,60336,.37857298E-3,.5E-5,0
FENGYUN 1C DEB,1999-025EMJ,2026-06-12T18:59:07.153728,15.07920506,.0041293,98.7421,147.1641,223.8857,257.7451,0,U,37717,999,92129,.22621E-2,.35487E-3,0
FENGYUN 1C DEB,1999-025EML,2026-06-09T22:15:50.923872,14.58025619,.00454307,99.4812,216.7306,87.2478,91.1293,0,U,37719,999,2848,.10120497E-2,.4661E-4,0
FENGYUN 1C DEB,1999-025EMZ,2026-06-12T03:26:52.927296,14.04669092,.02113789,102.3039,307.9882,148.1937,213.2186,0,U,37900,999,62360,.21110277E-2,.4058E-4,0
FENGYUN 1C DEB,1999-025ENB,2026-06-09T19:00:51.505056,13.53343909,.03164691,98.6773,4.3379,204.3606,154.2294,0,U,37902,999,65398,.16633797E-2,.1495E-4,0
FENGYUN 1C DEB,1999-025ENF,2026-06-10T22:05:38.986368,13.81018717,.01611001,99.5760,210.5057,274.5661,265.5260,0,U,37906,999,61942,.38340302E-3,.399E-5,0
FENGYUN 1C DEB,1999-025ENG,2026-06-06T01:59:24.459072,14.25403250,.0057863,99.0876,280.9825,44.5234,316.0573,0,U,37907,999,85769,.22192E-2,.5284E-4,0
