FENGYUN 1C DEB          
1 37464U 99025EJJ 26159.18976887  .00003308  00000+0  28775-2 0  9990
2 37464 102.7078 136.4614 0454667  88.1648 277.1473 13.48265291633120
FENGYUN 1C DEB          
1 37474U 99025EJU 26154.86788186  .00009507  00000+0  11488-2 0  9994
2 37474  99.1494  28.3159 0123782 316.1785  42.9651 14.78634424649318
FENGYUN 1C DEB          
1 37476U 99025EJW 26158.66313046  .00000331  00000+0  95009-3 0  9995
2 37476  98.9461 132.0862 1070976 242.0098 106.8605 11.91465305695509
FENGYUN 1C DEB          
1 37477U 99025EJX 26163.81482473  .00001177  00000+0  56781-3 0  9993
2 37477  98.6047 168.4994 0035538 301.6366  58.1345 14.20220173844985
FENGYUN 1C DEB          
1 37478U 99025EJY 26162.64879557  .00000632  00000+0  10620-2 0  9993
2 37478  99.6597 131.6525 0539542 262.7512  91.1991 13.03570725589186
FENGYUN 1C DEB          
1 37589U 99025EKH 26156.97160117  .00004981  00000+0  26797-2 0  9993
2 37589  99.0738  65.8209 0116160 130.0671 231.0755 14.09891029850529
FENGYUN 1C DEB          
1 37591U 99025EKK 26162.11520169  .00014055  00000+0  28467-2 0  9995
2 37591  98.4077 115.0317 0065261 153.5766 222.1275 14.60021538690919
FENGYUN 1C DEB          
1 37593U 99025EKM 26150.52084815  .00004293  00000+0  12692-2 0  9998
2 37593  99.0095  40.8046 0147338 341.6754 138.9750 14.37901213885453
FENGYUN 1C DEB          
1 37594U 99025EKN 26158.30291789  .00000455  00000+0  26572-3 0  9992
2 37594  98.7131 187.6749 0086914 128.2083 232.6956 14.11288464802522
FENGYUN 1C DEB          
1 37595U 99025EKP 26157.41746292  .00042590  00000+0  53511-2 0  9996
2 37595  99.0456  32.7946 0020094 166.8284  11.3065 14.81801706651986
FENGYUN 1C DEB          
1 37600U 99025EKU 26162.18463241  .00003686  00000+0  20541-2 0  9993
2 37600  98.9295 315.3949 0349159 281.2386  74.9723 13.84913004909839
FENGYUN 1C DEB          
1 37683U 99025EKY 26156.43276476  .00002692  00000+0  21281-2 0  9995
2 37683  97.9941  43.6836 0583770  39.8217 135.9833 13.32745923315660
FENGYUN 1C DEB          
1 37686U 99025ELB 26162.28511498  .00000215  00000+0  32233-3 0  9993
2 37686  99.0139 165.0970 0394223 314.4291  58.2720 13.35517467630373
FENGYUN 1C DEB          
1 37687U 99025ELC 26160.82332419  .00003572  00000+0  20056-2 0  9994
2 37687  98.1859 179.1414 0328646 223.4312 318.5764 13.87157387857358
FENGYUN 1C DEB          
1 37689U 99025ELE 26150.60859132  .00010254  00000+0  25604-2 0  9996
2 37689  98.9093 206.3282 0021514  96.0587 264.3059 14.51615100602601
FENGYUN 1C DEB          
1 37691U 99025ELG 26161.00619500  .00014539  00000+0  16856-2 0  9997
2 37691  98.3658  72.0046 0254803 312.3018  45.6837 14.64914798882527
FENGYUN 1C DEB          
1 37693U 99025ELJ 26163.23626338  .00000926  00000+0  54824-3 0  9996
2 37693  98.6969 161.6455 0069754 282.2862 140.7695 14.08883038647042
FENGYUN 1C DEB          
1 37694U 99025ELK 26161.39993380  .00002291  00000+0  10279-2 0  9998
2 37694  98.1854 220.0943 0143040 289.3725 130.7174 14.18040929542499
FENGYUN 1C DEB          
1 37695U 99025ELL 26157.34099242  .00001160  00000+0  69952-3 0  9990
2 37695  98.1870 179.2294 0462007 150.5521 230.5683 13.65606545916483
FENGYUN 1C DEB          
1 37704U 99025ELV 26150.45363914  .00001405  00000+0  13113-2 0  9995
2 37704  98.3273 326.2618 0241602  85.8225 305.5738 13.70946431646766
FENGYUN 1C DEB          
1 37707U 99025ELY 26159.90536597  .00001614  00000+0  32537-3 0  9990
2 37707 100.2060 208.9249 0140705 226.0869 314.1913 14.57427659881604
FENGYUN 1C DEB          
1 37712U 99025EMD 26162.17460478  .00001015  00000+0  34586-3 0  9994
2 37712  98.8426 310.7884 0079126 179.7856 358.5434 14.36970299665513
FENGYUN 1C DEB          
1 37714U 99025EMF 26151.29342949  .00006403  00000+0  22801-2 0  9991
2 37714  98.8991 272.5594 0044944 304.4842  55.2100 14.34053639599387
FENGYUN 1C DEB          
1 37715U 99025EMG 26163.29036263  .00000500  00000+0  37857-3 0  9994
2 37715  98.9526 170.9725 0112808 334.2713  41.5034 13.95688887603366
FENGYUN 1C DEB          
1 37717U 99025EMJ 26163.79105502  .00035487  00000+0  22621-2 0  9998
2 37717  98.7421 147.1641 0041293 223.8857 257.7451 15.07920506921295
FENGYUN 1C DEB          
1 37719U 99025EML 26160.92767273  .00004661  00000+0  10120-2 0  9992
2 37719  99.4812 216.7306 0045430  87.2478  91.1293 14.58025619 28487
FENGYUN 1C DEB          
1 37900U 99025EMZ 26163.14366814  .00004058  00000+0  21110-2 0  9998
2 37900 102.3039 307.9882 0211378 148.1937 213.2186 14.04669092623602
FENGYUN 1C DEB          
1 37902U 99025ENB 26160.79226279  .00001495  00000+0  16634-2 0  9995
2 37902  98.6773   4.3379 0316469 204.3606 154.2294 13.53343909653987
FENGYUN 1C DEB          
1 37906U 99025ENF 26161.92059012  .00000399  00000+0  38340-3 0  9995
2 37906  99.5760 210.5057 0161100 274.5661 265.5260 13.81018717619428
FENGYUN 1C DEB          
1 37907U 99025ENG 26157.08292198  .00005284  00000+0  22192-2 0  9997
2 37907  99.0876 280.9825 0057863  44.5234 316.0573 14.25403250857698
